ATLAS CENTAUR 2         
1 00694U 63047A   25343.40027054  .00004510  00000+0  54382-3 0  9992
2 00694  30.3561 340.1115 0549020   4.7521 355.8029 14.11730941118859
THOR AGENA D R/B        
1 00733U 64002A   25343.44288363  .00000423  00000+0  16809-3 0  9995
2 00733  99.1216 346.8833 0033218 159.7086 200.5425 14.33956661225361
SL-3 R/B                
1 00877U 64053B   25343.42422334  .00000689  00000+0  15829-3 0  9991
2 00877  65.0768 235.8519 0073591 321.4470  38.1386 14.61271810253601
SL-8 R/B                
1 02802U 67045B   25343.47082300  .00000730  00000+0  20944-3 0  9996
2 02802  74.0096 156.5668 0064468 186.6581 173.3728 14.45531923 75987
SL-8 R/B                
1 03230U 68040B   25343.44433943  .00005949  00000+0  44784-3 0  9993
2 03230  74.0303 137.9848 0025236 340.2355  19.7853 15.02488255 76452
OAO 2                   
1 03597U 68110A   25343.47632748  .00000579  00000+0  16126-3 0  9997
2 03597  34.9944  48.8774 0005655 199.7658 160.2815 14.47241426  6029
ISIS 1                  
1 03669U 69009A   25343.43086617  .00000359  00000+0  26141-3 0  9993
2 03669  88.4485 165.1584 1706848 271.3858  69.3191 11.30352494338332
SERT 2                  
1 04327U 70009A   25343.50389152  .00000068  00000+0  15009-3 0  9993
2 04327  99.2645 286.5850 0005489  41.7449  71.2051 13.58716971767646
SL-3 R/B                
1 05118U 71028B   25343.52106979  .00036391  00000+0  55278-3 0  9990
2 05118  81.2374 162.7831 0019344 252.0396 107.8745 15.54178532974630
ASTEX 1                 
1 05560U 71089A   25343.39395579  .00001059  00000+0  26980-3 0  9990
2 05560  92.7135 122.5365 0016806  36.4554 323.7792 14.50636886849211
SL-8 R/B                
1 05730U 71119B   25343.48164032  .00017074  00000+0  89047-3 0  9998
2 05730  73.8887 344.0638 0559707 328.9853  27.9324 14.35609868642534
OAO 3 (COPERNICUS)      
1 06153U 72065A   25343.46422109  .00000795  00000+0  16779-3 0  9993
2 06153  35.0055  91.3244 0006167 146.6623 282.5806 14.59902297833009
