CCSDS_OMM_VERS = 2.0
CREATION_DATE  = 
ORIGINATOR     = 

OBJECT_NAME    = ATLAS CENTAUR 2
OBJECT_ID      = 1963-047A
CENTER_NAME    = EARTH
REF_FRAME      = TEME
TIME_SYSTEM    = UTC
MEAN_ELEMENT_THEORY = SGP/SGP4

EPOCH          = 2025-12-09T09:36:23.374656
MEAN_MOTION    = 14.11730941
ECCENTRICITY   = .054902
INCLINATION    = 30.3561
RA_OF_ASC_NODE = 340.1115
ARG_OF_PERICENTER = 4.7521
MEAN_ANOMALY   = 355.8029

EPHEMERIS_TYPE = 0
CLASSIFICATION_TYPE = U
NORAD_CAT_ID   = 694
ELEMENT_SET_NO = 999
REV_AT_EPOCH   = 11885
BSTAR          = .54382E-3
MEAN_MOTION_DOT = .451E-4
MEAN_MOTION_DDOT = 0

CCSDS_OMM_VERS = 2.0
CREATION_DATE  = 
ORIGINATOR     = 

OBJECT_NAME    = THOR AGENA D R/B
OBJECT_ID      = 1964-002A
CENTER_NAME    = EARTH
REF_FRAME      = TEME
TIME_SYSTEM    = UTC
MEAN_ELEMENT_THEORY = SGP/SGP4

EPOCH          = 2025-12-09T10:37:45.145632
MEAN_MOTION    = 14.33956661
ECCENTRICITY   = .0033218
INCLINATION    = 99.1216
RA_OF_ASC_NODE = 346.8833
ARG_OF_PERICENTER = 159.7086
MEAN_ANOMALY   = 200.5425

EPHEMERIS_TYPE = 0
CLASSIFICATION_TYPE = U
NORAD_CAT_ID   = 733
ELEMENT_SET_NO = 999
REV_AT_EPOCH   = 22536
BSTAR          = .16809E-3
MEAN_MOTION_DOT = .423E-5
MEAN_MOTION_DDOT = 0

CCSDS_OMM_VERS = 2.0
CREATION_DATE  = 
ORIGINATOR     = 

OBJECT_NAME    = SL-3 R/B
OBJECT_ID      = 1964-053B
CENTER_NAME    = EARTH
REF_FRAME      = TEME
TIME_SYSTEM    = UTC
MEAN_ELEMENT_THEORY = SGP/SGP4

EPOCH          = 2025-12-09T10:10:52.896576
MEAN_MOTION    = 14.61271810
ECCENTRICITY   = .0073591
INCLINATION    = 65.0768
RA_OF_ASC_NODE = 235.8519
ARG_OF_PERICENTER = 321.4470
MEAN_ANOMALY   = 38.1386

EPHEMERIS_TYPE = 0
CLASSIFICATION_TYPE = U
NORAD_CAT_ID   = 877
ELEMENT_SET_NO = 999
REV_AT_EPOCH   = 25360
BSTAR          = .15829E-3
MEAN_MOTION_DOT = .689E-5
MEAN_MOTION_DDOT = 0

CCSDS_OMM_VERS = 2.0
CREATION_DATE  = 
ORIGINATOR     = 

OBJECT_NAME    = SL-8 R/B
OBJECT_ID      = 1967-045B
CENTER_NAME    = EARTH
REF_FRAME      = TEME
TIME_SYSTEM    = UTC
MEAN_ELEMENT_THEORY = SGP/SGP4

EPOCH          = 2025-12-09T11:17:59.107200
MEAN_MOTION    = 14.45531923
ECCENTRICITY   = .0064468
INCLINATION    = 74.0096
RA_OF_ASC_NODE = 156.5668
ARG_OF_PERICENTER = 186.6581
MEAN_ANOMALY   = 173.3728

EPHEMERIS_TYPE = 0
CLASSIFICATION_TYPE = U
NORAD_CAT_ID   = 2802
ELEMENT_SET_NO = 999
REV_AT_EPOCH   = 7598
BSTAR          = .20944E-3
MEAN_MOTION_DOT = .73E-5
MEAN_MOTION_DDOT = 0

CCSDS_OMM_VERS = 2.0
CREATION_DATE  = 
ORIGINATOR     = 

OBJECT_NAME    = SL-8 R/B
OBJECT_ID      = 1968-040B
CENTER_NAME    = EARTH
REF_FRAME      = TEME
TIME_SYSTEM    = UTC
MEAN_ELEMENT_THEORY = SGP/SGP4

EPOCH          = 2025-12-09T10:39:50.926752
MEAN_MOTION    = 15.02488255
ECCENTRICITY   = .0025236
INCLINATION    = 74.0303
RA_OF_ASC_NODE = 137.9848
ARG_OF_PERICENTER = 340.2355
MEAN_ANOMALY   = 19.7853

EPHEMERIS_TYPE = 0
CLASSIFICATION_TYPE = U
NORAD_CAT_ID   = 3230
ELEMENT_SET_NO = 999
REV_AT_EPOCH   = 7645
BSTAR          = .44784E-3
MEAN_MOTION_DOT = .5949E-4
MEAN_MOTION_DDOT = 0

CCSDS_OMM_VERS = 2.0
CREATION_DATE  = 
ORIGINATOR     = 

OBJECT_NAME    = OAO 2
OBJECT_ID      = 1968-110A
CENTER_NAME    = EARTH
REF_FRAME      = TEME
TIME_SYSTEM    = UTC
MEAN_ELEMENT_THEORY = SGP/SGP4

EPOCH          = 2025-12-09T11:25:54.694272
MEAN_MOTION    = 14.47241426
ECCENTRICITY   = .0005655
INCLINATION    = 34.9944
RA_OF_ASC_NODE = 48.8774
ARG_OF_PERICENTER = 199.7658
MEAN_ANOMALY   = 160.2815

EPHEMERIS_TYPE = 0
CLASSIFICATION_TYPE = U
NORAD_CAT_ID   = 3597
ELEMENT_SET_NO = 999
REV_AT_EPOCH   = 602
BSTAR          = .16126E-3
MEAN_MOTION_DOT = .579E-5
MEAN_MOTION_DDOT = 0

CCSDS_OMM_VERS = 2.0
CREATION_DATE  = 
ORIGINATOR     = 

OBJECT_NAME    = ISIS 1
OBJECT_ID      = 1969-009A
CENTER_NAME    = EARTH
REF_FRAME      = TEME
TIME_SYSTEM    = UTC
MEAN_ELEMENT_THEORY = SGP/SGP4

EPOCH          = 2025-12-09T10:20:26.837088
MEAN_MOTION    = 11.30352494
ECCENTRICITY   = .1706848
INCLINATION    = 88.4485
RA_OF_ASC_NODE = 165.1584
ARG_OF_PERICENTER = 271.3858
MEAN_ANOMALY   = 69.3191

EPHEMERIS_TYPE = 0
CLASSIFICATION_TYPE = U
NORAD_CAT_ID   = 3669
ELEMENT_SET_NO = 999
REV_AT_EPOCH   = 33833
BSTAR          = .26141E-3
MEAN_MOTION_DOT = .359E-5
MEAN_MOTION_DDOT = 0

CCSDS_OMM_VERS = 2.0
CREATION_DATE  = 
ORIGINATOR     = 

OBJECT_NAME    = SERT 2
OBJECT_ID      = 1970-009A
CENTER_NAME    = EARTH
REF_FRAME      = TEME
TIME_SYSTEM    = UTC
MEAN_ELEMENT_THEORY = SGP/SGP4

EPOCH          = 2025-12-09T12:05:36.227328
MEAN_MOTION    = 13.58716971
ECCENTRICITY   = .0005489
INCLINATION    = 99.2645
RA_OF_ASC_NODE = 286.5850
ARG_OF_PERICENTER = 41.7449
MEAN_ANOMALY   = 71.2051

EPHEMERIS_TYPE = 0
CLASSIFICATION_TYPE = U
NORAD_CAT_ID   = 4327
ELEMENT_SET_NO = 999
REV_AT_EPOCH   = 76764
BSTAR          = .15009E-3
MEAN_MOTION_DOT = .68E-6
MEAN_MOTION_DDOT = 0

CCSDS_OMM_VERS = 2.0
CREATION_DATE  = 
ORIGINATOR     = 

OBJECT_NAME    = SL-3 R/B
OBJECT_ID      = 1971-028B
CENTER_NAME    = EARTH
REF_FRAME      = TEME
TIME_SYSTEM    = UTC
MEAN_ELEMENT_THEORY = SGP/SGP4

EPOCH          = 2025-12-09T12:30:20.429856
MEAN_MOTION    = 15.54178532
ECCENTRICITY   = .0019344
INCLINATION    = 81.2374
RA_OF_ASC_NODE = 162.7831
ARG_OF_PERICENTER = 252.0396
MEAN_ANOMALY   = 107.8745

EPHEMERIS_TYPE = 0
CLASSIFICATION_TYPE = U
NORAD_CAT_ID   = 5118
ELEMENT_SET_NO = 999
REV_AT_EPOCH   = 97463
BSTAR          = .55278E-3
MEAN_MOTION_DOT = .36391E-3
MEAN_MOTION_DDOT = 0

CCSDS_OMM_VERS = 2.0
CREATION_DATE  = 
ORIGINATOR     = 

OBJECT_NAME    = ASTEX 1
OBJECT_ID      = 1971-089A
CENTER_NAME    = EARTH
REF_FRAME      = TEME
TIME_SYSTEM    = UTC
MEAN_ELEMENT_THEORY = SGP/SGP4

EPOCH          = 2025-12-09T09:27:17.780256
MEAN_MOTION    = 14.50636886
ECCENTRICITY   = .0016806
INCLINATION    = 92.7135
RA_OF_ASC_NODE = 122.5365
ARG_OF_PERICENTER = 36.4554
MEAN_ANOMALY   = 323.7792

EPHEMERIS_TYPE = 0
CLASSIFICATION_TYPE = U
NORAD_CAT_ID   = 5560
ELEMENT_SET_NO = 999
REV_AT_EPOCH   = 84921
BSTAR          = .2698E-3
MEAN_MOTION_DOT = .1059E-4
MEAN_MOTION_DDOT = 0

CCSDS_OMM_VERS = 2.0
CREATION_DATE  = 
ORIGINATOR     = 

OBJECT_NAME    = SL-8 R/B
OBJECT_ID      = 1971-119B
CENTER_NAME    = EARTH
REF_FRAME      = TEME
TIME_SYSTEM    = UTC
MEAN_ELEMENT_THEORY = SGP/SGP4

EPOCH          = 2025-12-09T11:33:33.723648
MEAN_MOTION    = 14.35609868
ECCENTRICITY   = .0559707
INCLINATION    = 73.8887
RA_OF_ASC_NODE = 344.0638
ARG_OF_PERICENTER = 328.9853
MEAN_ANOMALY   = 27.9324

EPHEMERIS_TYPE = 0
CLASSIFICATION_TYPE = U
NORAD_CAT_ID   = 5730
ELEMENT_SET_NO = 999
REV_AT_EPOCH   = 64253
BSTAR          = .89047E-3
MEAN_MOTION_DOT = .17074E-3
MEAN_MOTION_DDOT = 0

CCSDS_OMM_VERS = 2.0
CREATION_DATE  = 
ORIGINATOR     = 

OBJECT_NAME    = OAO 3 (COPERNICUS)
OBJECT_ID      = 1972-065A
CENTER_NAME    = EARTH
REF_FRAME      = TEME
TIME_SYSTEM    = UTC
MEAN_ELEMENT_THEORY = SGP/SGP4

EPOCH          = 2025-12-09T11:08:28.702176
MEAN_MOTION    = 14.59902297
ECCENTRICITY   = .0006167
INCLINATION    = 35.0055
RA_OF_ASC_NODE = 91.3244
ARG_OF_PERICENTER = 146.6623
MEAN_ANOMALY   = 282.5806

EPHEMERIS_TYPE = 0
CLASSIFICATION_TYPE = U
NORAD_CAT_ID   = 6153
ELEMENT_SET_NO = 999
REV_AT_EPOCH   = 83300
BSTAR          = .16779E-3
MEAN_MOTION_DOT = .795E-5
MEAN_MOTION_DDOT = 0

